STARLINK-31960          
1 59931U 24106K   26068.08861213 -.00003721  00000+0 -12580-3 0  9994
2 59931  42.9992 335.6842 0000843 285.8018  74.2740 15.27573360100433
FOSSASAT-2E20 (TAT-O)   
1 63003U 25009DN  26068.70855016  .00016337  00000+0  61863-3 0  9998
2 63003  97.3231 146.2859 0002189 347.5575  12.5610 15.26991080121314
